GORIZONT 1 [-]          
1 11158U 78118A   15112.99226247  .00000000  00000-0  10000-3 0  9996
2 11158  17.9543 283.9168 3363474 160.2527 216.6760  1.00285810 82077
GORIZONT 2 [-]          
1 11440U 79062A   15113.08746799  .00000000  00000-0  10000-3 0  9999
2 11440  13.8180 332.5902 0005176 191.9951 167.9314  1.00265770 97163
GORIZONT 3 [-]          
1 11648U 79105A   15113.23189941  .00000000  00000-0  10000-3 0  9994
2 11648  13.8963 333.7432 0015643 150.8935 209.1347  1.00265316 81613
GORIZONT 4 [-]          
1 11841U 80049A   15112.45741918 -.00000183  00000-0  00000+0 0  9997
2 11841  14.7995 337.9319 0003724 202.2051 138.9705  0.98629407193365
GORIZONT 5 [-]          
1 13092U 82020A   15112.71659693 -.00000057  00000-0  00000+0 0  9995
2 13092  15.4170 342.7010 0036247 142.3506 203.5460  0.98531153 81458
GORIZONT 6 [-]          
1 13624U 82103A   15110.41199875  .00000054  00000-0  00000+0 0  9990
2 13624  14.2704 342.6097 0004886 163.1371  39.8320  1.00290204 80062
GORIZONT 7 [-]          
1 14160U 83066A   15111.43450884 -.00000253  00000-0  00000+0 0  9990
2 14160  15.2994 350.0289 0012255 231.2287 307.0400  0.98349747114710
GORIZONT 8 [-]          
1 14532U 83118A   15113.19990156  .00000000  00000-0  10000-3 0  9991
2 14532  15.3193 351.5462 0027205  85.7133 274.5573  0.98263760 80505
GORIZONT 9 [-]          
1 14940U 84041A   15112.63975084 -.00000135  00000-0  00000+0 0  9996
2 14940  14.5863 350.3821 0008313 165.8523 358.9366  1.00322773 81176
GORIZONT 10 [-]         
1 15144U 84078A   15112.79646383  .00000000  00000-0  10000-3 0  9992
2 15144  14.5873 351.3945 0003699 189.7873 170.1623  1.00191610113751
GORIZONT 11 [-]         
1 15484U 85007A   15112.94362640  .00000104  00000-0  00000+0 0  9990
2 15484  14.5930 353.1127 0003452 137.6326  94.2565  1.00184247111786
GORIZONT 12 [-]         
1 16769U 86044A   15111.56939720 -.00000348  00000-0  00000+0 0  9996
2 16769  14.7291 357.9448 0005128 172.8575 346.1726  1.00229178106417
GORIZONT 13 [-]         
1 17083U 86090A   15109.79142764 -.00000090  00000-0  00000+0 0  9997
2 17083  16.0281   3.5602 0014490 254.8862 294.0882  0.96724874 79239
GORIZONT 14 [-]         
1 17969U 87040A   15113.14288639  .00000000  00000-0  10000-3 0  9997
2 17969  15.7885 356.0544 0031693 109.2953 251.0092  0.97653196 80076
GORIZONT 15 [-]         
1 19017U 88028A   15113.36270204  .00000000  00000-0  10000-3 0  9993
2 19017  15.9455   7.1029 0037030  90.6028 269.7829  0.97824459 79643
GORIZONT 16 [-]         
1 19397U 88071A   15112.34399566 -.00000136  00000-0  00000+0 0  9998
2 19397  14.8834   6.1619 0010864 340.8860 249.5204  0.99965632 97506
GORIZONT 17 [-]         
1 19765U 89004A   15113.15471573 -.00000146  00000-0  00000+0 0  9994
2 19765  15.1124   8.9665 0021050  68.0222 115.2378  0.99064616 95211
GORIZONT 18 [-]         
1 20107U 89052A   15113.07872257 -.00000292  00000-0  00000+0 0  9996
2 20107  15.0059  10.3687 0035874 239.6540 305.5348  0.99402257 93911
GORIZONT 19 [-]         
1 20263U 89081A   15113.32349954  .00000000  00000-0  10000-3 0  9993
2 20263  14.7931   9.9268 0005655 171.3958 188.5714  1.00314020 93646
GORIZONT 20 [-]         
1 20659U 90054A   15109.79133616  .00000028  00000-0  00000+0 0  9991
2 20659  14.9100  12.9797 0008851 128.9343  46.5757  1.00298236 90819
GORIZONT 21 [-]         
1 20923U 90094A   15110.13117269 -.00000116  00000-0  00000+0 0  9994
2 20923  14.8338  13.8077 0006994 159.9053  71.8203  1.00292742 89578
GORIZONT 22 [-]         
1 20953U 90102A   15111.65402885 -.00000308  00000-0  00000+0 0  9999
2 20953  14.7601  14.0304 0003418 211.1674   0.6568  1.00270973 89540
GORIZONT 23 [-]         
1 21533U 91046A   15112.36037737 -.00000122  00000-0  00000+0 0  9995
2 21533  15.0977  17.6226 0006116 207.5925 309.6193  0.98909396 80432
GORIZONT 24 [-]         
1 21759U 91074A   15113.80234668 -.00000021  00000-0  00000+0 0  9996
2 21759  15.0591  19.1480 0021585 156.2636  45.5272  0.98441063 84945
GORIZONT 25 [-]         
1 21922U 92017A   15110.46350391 -.00000370  00000-0  00000+0 0  9994
2 21922  14.6396  19.1207 0024495   8.6428 122.9471  0.99856185 84233
GORIZONT 26 [-]         
1 22041U 92043A   15111.68612270 -.00000169  00000-0  00000+0 0  9994
2 22041  14.6114  20.6512 0033905 161.9191  17.3048  0.99241124 83053
GORIZONT 27 [-]         
1 22245U 92082A   15112.97392470  .00000000  00000-0  10000-3 0  9991
2 22245  14.5347  21.0119 0010632 276.5196  83.3107  1.00210061 86336
GORIZONT 28 [-]         
1 22880U 93069A   15113.22604799  .00000000  00000-0  10000-3 0  9991
2 22880  14.2702  24.2893 0033802  64.9488 295.3485  0.99643497 78542
GORIZONT 29 [-]         
1 22907U 93072A   15113.58355935  .00000066  00000-0  00000+0 0  9996
2 22907  14.2288  24.0944 0010064 250.2096 341.0114  1.00150982 78415
GORIZONT 30 [-]         
1 23108U 94030A   15112.10303032 -.00000139  00000-0  00000+0 0  9995
2 23108  14.1319  25.1368 0004477 153.4117  55.9286  1.00266435 76638
GORIZONT 31 [-]         
1 23775U 96005A   15112.08302590 -.00000281  00000-0  00000+0 0  9992
2 23775  13.3963  30.5769 0022589 132.4858  47.0209  0.99898177 70353
GORIZONT 32 [-]         
1 23880U 96034A   15113.45474521  .00000000  00000-0  10000-3 0  9990
2 23880  13.2842  31.2801 0008197 247.9798 111.8747  1.00184417 69234
GORIZONT 33 [-]         
1 26372U 00029A   15113.72941736  .00000069  00000-0  00000+0 0  9995
2 26372  10.9221  40.3277 0002462  82.9030   5.3682  1.00328319 54578
